[
    {
        "Altitude(m)": 717571.6771602664,
        "Argument of Periapsis(deg)": 0.0011390121186627068,
        "Eccentricity": 0.0,
        "Inclination(deg)": 45.0,
        "Latitude(deg)": -44.40289087943141,
        "Longitude(deg)": -6.98541008200258,
        "Mean Anomaly(deg)": -80.66487833525187,
        "RAAN(deg)": 169.9989248058542,
        "Satellite Name": "Constellation 1 765",
        "Satellite Number": 765,
        "Semi-Major Axis(m)": 7083131.272910544,
        "Time(s)": 19
    },
    {
        "Altitude(m)": 717567.6582556014,
        "Argument of Periapsis(deg)": 0.0011989601249081123,
        "Eccentricity": 0.0,
        "Inclination(deg)": 45.0,
        "Latitude(deg)": -44.39316560236155,
        "Longitude(deg)": -6.9060826498613554,
        "Mean Anomaly(deg)": -80.60417719500205,
        "RAAN(deg)": 169.9988682166886,
        "Satellite Name": "Constellation 1 765",
        "Satellite Number": 765,
        "Semi-Major Axis(m)": 7083131.272910544,
        "Time(s)": 20
    },
    {
        "Altitude(m)": 717563.6141023844,
        "Argument of Periapsis(deg)": 0.001258908131153518,
        "Eccentricity": 0.0,
        "Inclination(deg)": 45.0,
        "Latitude(deg)": -44.38337940148953,
        "Longitude(deg)": -6.8267828733718146,
        "Mean Anomaly(deg)": -80.54347605475215,
        "RAAN(deg)": 169.99881162752305,
        "Satellite Name": "Constellation 1 765",
        "Satellite Number": 765,
        "Semi-Major Axis(m)": 7083131.272910544,
        "Time(s)": 21
    },
    {
        "Altitude(m)": 717559.5447155135,
        "Argument of Periapsis(deg)": 0.0013188561373989236,
        "Eccentricity": 0.0,
        "Inclination(deg)": 45.0,
        "Latitude(deg)": -44.37353231739076,
        "Longitude(deg)": -6.747511074470738,
        "Mean Anomaly(deg)": -80.48277491450226,
        "RAAN(deg)": 169.9987550383575,
        "Satellite Name": "Constellation 1 765",
        "Satellite Number": 765,
        "Semi-Major Axis(m)": 7083131.272910544,
        "Time(s)": 22
    },
    {
        "Altitude(m)": 717555.450109975,
        "Argument of Periapsis(deg)": 0.0013788041436443293,
        "Eccentricity": 0.0,
        "Inclination(deg)": 45.0,
        "Latitude(deg)": -44.36362439085785,
        "Longitude(deg)": -6.668267070353232,
        "Mean Anomaly(deg)": -80.42207377425231,
        "RAAN(deg)": 169.9986984491919,
        "Satellite Name": "Constellation 1 765",
        "Satellite Number": 765,
        "Semi-Major Axis(m)": 7083131.272910544,
        "Time(s)": 23
    },
    {
        "Altitude(m)": 717551.3303008524,
        "Argument of Periapsis(deg)": 0.001438752149889735,
        "Eccentricity": 0.0,
        "Inclination(deg)": 45.0,
        "Latitude(deg)": -44.353655662901645,
        "Longitude(deg)": -6.589051182053624,
        "Mean Anomaly(deg)": -80.36137263400246,
        "RAAN(deg)": 169.99864186002634,
        "Satellite Name": "Constellation 1 765",
        "Satellite Number": 765,
        "Semi-Major Axis(m)": 7083131.272910544,
        "Time(s)": 24
    },
    {
        "Altitude(m)": 717547.185303313,
        "Argument of Periapsis(deg)": 0.0014987001561351404,
        "Eccentricity": 0.0,
        "Inclination(deg)": 45.0,
        "Latitude(deg)": -44.3436261747395,
        "Longitude(deg)": -6.509863561974695,
        "Mean Anomaly(deg)": -80.30067149375252,
        "RAAN(deg)": 169.9985852708608,
        "Satellite Name": "Constellation 1 765",
        "Satellite Number": 765,
        "Semi-Major Axis(m)": 7083131.272910544,
        "Time(s)": 25
    },
    {
        "Altitude(m)": 717543.0151326355,
        "Argument of Periapsis(deg)": 0.001558648162380546,
        "Eccentricity": 0.0,
        "Inclination(deg)": 45.0,
        "Latitude(deg)": -44.33353596783333,
        "Longitude(deg)": -6.430704362302445,
        "Mean Anomaly(deg)": -80.23997035350264,
        "RAAN(deg)": 169.9985286816952,
        "Satellite Name": "Constellation 1 765",
        "Satellite Number": 765,
        "Semi-Major Axis(m)": 7083131.272910544,
        "Time(s)": 26
    },
    {
        "Altitude(m)": 717538.8198041759,
        "Argument of Periapsis(deg)": 0.0016185961686259519,
        "Eccentricity": 0.0,
        "Inclination(deg)": 45.0,
        "Latitude(deg)": -44.32338508383151,
        "Longitude(deg)": -6.351573734527422,
        "Mean Anomaly(deg)": -80.1792692132527,
        "RAAN(deg)": 169.99847209252962,
        "Satellite Name": "Constellation 1 765",
        "Satellite Number": 765,
        "Semi-Major Axis(m)": 7083131.272910544,
        "Time(s)": 27
    },
    {
        "Altitude(m)": 717534.5993333838,
        "Argument of Periapsis(deg)": 0.0016785441748713573,
        "Eccentricity": 0.0,
        "Inclination(deg)": 45.0,
        "Latitude(deg)": -44.31317356460612,
        "Longitude(deg)": -6.272471829759583,
        "Mean Anomaly(deg)": -80.11856807300282,
        "RAAN(deg)": 169.99841550336407,
        "Satellite Name": "Constellation 1 765",
        "Satellite Number": 765,
        "Semi-Major Axis(m)": 7083131.272910544,
        "Time(s)": 28
    },
    {
        "Altitude(m)": 717530.3537358004,
        "Argument of Periapsis(deg)": 0.001738492181116763,
        "Eccentricity": 0.0,
        "Inclination(deg)": 45.0,
        "Latitude(deg)": -44.30290145224253,
        "Longitude(deg)": -6.1933987986470775,
        "Mean Anomaly(deg)": -80.05786693275296,
        "RAAN(deg)": 169.9983589141985,
        "Satellite Name": "Constellation 1 765",
        "Satellite Number": 765,
        "Semi-Major Axis(m)": 7083131.272910544,
        "Time(s)": 29
    },
    {
        "Altitude(m)": 717526.0830270732,
        "Argument of Periapsis(deg)": 0.0017984401873621684,
        "Eccentricity": 0.0,
        "Inclination(deg)": 45.0,
        "Latitude(deg)": -44.2925687890391,
        "Longitude(deg)": -6.114354959472048,
        "Mean Anomaly(deg)": -79.99716579250303,
        "RAAN(deg)": 169.99830232503294,
        "Satellite Name": "Constellation 1 765",
        "Satellite Number": 765,
        "Semi-Major Axis(m)": 7083131.272910544,
        "Time(s)": 30
    },
    {
        "Altitude(m)": 717521.7872229196,
        "Argument of Periapsis(deg)": 0.0018583881936075745,
        "Eccentricity": 0.0,
        "Inclination(deg)": 45.0,
        "Latitude(deg)": -44.282175617505224,
        "Longitude(deg)": -6.035340125760578,
        "Mean Anomaly(deg)": -79.93646465225314,
        "RAAN(deg)": 169.99824573586736,
        "Satellite Name": "Constellation 1 765",
        "Satellite Number": 765,
        "Semi-Major Axis(m)": 7083131.272910544,
        "Time(s)": 31
    },
    {
        "Altitude(m)": 717517.4663391634,
        "Argument of Periapsis(deg)": 0.0019183361998529795,
        "Eccentricity": 0.0,
        "Inclination(deg)": 45.0,
        "Latitude(deg)": -44.27172198036213,
        "Longitude(deg)": -5.95635461486289,
        "Mean Anomaly(deg)": -79.87576351200323,
        "RAAN(deg)": 169.99818914670178,
        "Satellite Name": "Constellation 1 765",
        "Satellite Number": 765,
        "Semi-Major Axis(m)": 7083131.272910544,
        "Time(s)": 32
    },
    {
        "Altitude(m)": 717513.1203917244,
        "Argument of Periapsis(deg)": 0.0019782842060983856,
        "Eccentricity": 0.0,
        "Inclination(deg)": 45.0,
        "Latitude(deg)": -44.26120792054101,
        "Longitude(deg)": -5.87739857556385,
        "Mean Anomaly(deg)": -79.81506237175333,
        "RAAN(deg)": 169.99813255753622,
        "Satellite Name": "Constellation 1 765",
        "Satellite Number": 765,
        "Semi-Major Axis(m)": 7083131.272910544,
        "Time(s)": 33
    },
    {
        "Altitude(m)": 717508.7493966008,
        "Argument of Periapsis(deg)": 0.0020382322123437906,
        "Eccentricity": 0.0,
        "Inclination(deg)": 45.0,
        "Latitude(deg)": -44.2506334811826,
        "Longitude(deg)": -5.798472156178071,
        "Mean Anomaly(deg)": -79.75436123150347,
        "RAAN(deg)": 169.99807596837064,
        "Satellite Name": "Constellation 1 765",
        "Satellite Number": 765,
        "Semi-Major Axis(m)": 7083131.272910544,
        "Time(s)": 34
    },
    {
        "Altitude(m)": 717504.3533698895,
        "Argument of Periapsis(deg)": 0.002098180218589197,
        "Eccentricity": 0.0,
        "Inclination(deg)": 45.0,
        "Latitude(deg)": -44.23999870563622,
        "Longitude(deg)": -5.719575504548036,
        "Mean Anomaly(deg)": -79.6936600912535,
        "RAAN(deg)": 169.9980193792051,
        "Satellite Name": "Constellation 1 765",
        "Satellite Number": 765,
        "Semi-Major Axis(m)": 7083131.272910544,
        "Time(s)": 35
    },
    {
        "Altitude(m)": 717499.9323277816,
        "Argument of Periapsis(deg)": 0.002158128224834602,
        "Eccentricity": 0.0,
        "Inclination(deg)": 45.0,
        "Latitude(deg)": -44.22930363745908,
        "Longitude(deg)": -5.640708768042802,
        "Mean Anomaly(deg)": -79.63295895100364,
        "RAAN(deg)": 169.99796279003948,
        "Satellite Name": "Constellation 1 765",
        "Satellite Number": 765,
        "Semi-Major Axis(m)": 7083131.272910544,
        "Time(s)": 36
    },
    {
        "Altitude(m)": 717495.4862865615,
        "Argument of Periapsis(deg)": 0.002218076231080008,
        "Eccentricity": 0.0,
        "Inclination(deg)": 45.0,
        "Latitude(deg)": -44.2185483204157,
        "Longitude(deg)": -5.561872261652974,
        "Mean Anomaly(deg)": -79.57225781075374,
        "RAAN(deg)": 169.99790620087393,
        "Satellite Name": "Constellation 1 765",
        "Satellite Number": 765,
        "Semi-Major Axis(m)": 7083131.272910544,
        "Time(s)": 37
    }
]